DMSP 5D-3 F16 (USA 172) 
1 28054U 03048A   26116.95145166  .00000079  00000+0  65196-4 0  9993
2 28054  98.9930 140.4321 0005980 296.2460 125.8415 14.14477182162245
METEOSAT-9 (MSG-2)      
1 28912U 05049B   26116.93089426  .00000118  00000+0  00000+0 0  9995
2 28912   9.2489  54.6630 0000511 343.3476 197.6940  1.00275091  6486
DMSP 5D-3 F17 (USA 191) 
1 29522U 06050A   26116.97448705  .00000114  00000+0  81289-4 0  9998
2 29522  98.7395 124.5903 0009691 195.8168 164.2704 14.14982847  5186
FENGYUN 3A              
1 32958U 08026A   26116.80556056  .00000083  00000+0  60171-4 0  9993
2 32958  98.6856  58.6087 0007587 277.8297  82.2018 14.19559822928112
GOES 14                 
1 35491U 09033A   26116.88933730 -.00000059  00000+0  00000+0 0  9997
2 35491   1.5596  83.6273 0001750 314.0551 307.8984  1.00116667  6071
DMSP 5D-3 F18 (USA 210) 
1 35951U 09057A   26116.94221204  .00000267  00000+0  16127-3 0  9998
2 35951  98.9017  97.8314 0011885  41.2435 318.9633 14.14866445852341
EWS-G2 (GOES 15)        
1 36411U 10008A   26116.96145524  .00000012  00000+0  00000+0 0  9997
2 36411   1.1428  83.7723 0003983  23.7429 156.8227  1.00272523 59123
COMS 1                  
1 36744U 10032A   26116.87586071 -.00000352  00000+0  00000+0 0  9997
2 36744   4.6751  76.0396 0001051 313.0776 269.2048  1.00272387 50572
FENGYUN 3B              
1 37214U 10059A   26116.89953729  .00000000  00000+0  23457-4 0  9994
2 37214  98.9674 162.6853 0021627 334.8965 129.1604 14.14829455800171
SUOMI NPP               
1 37849U 11061A   26116.95599413  .00000077  00000+0  57407-4 0  9991
2 37849  98.7926  58.1907 0002762 102.0003 258.1482 14.19506039751176
METEOSAT-10 (MSG-3)     
1 38552U 12035B   26116.63663973 -.00000015  00000+0  00000+0 0  9998
2 38552   4.5523  61.2377 0002094 312.6097  70.1584  1.00267982 50345
METOP-B                 
1 38771U 12049A   26116.94457624  .00000110  00000+0  70169-4 0  9997
2 38771  98.6548 169.4553 0003412 123.0957 237.0548 14.21433280705984
INSAT-3D                
1 39216U 13038B   26116.94744767 -.00000348  00000+0  00000+0 0  9994
2 39216   1.7955  83.1536 0001492 282.7930 319.6017  1.00271904 46565
FENGYUN 3C              
1 39260U 13052A   26116.94657139  .00000099  00000+0  71223-4 0  9997
2 39260  98.4957  93.1846 0014858 166.3676 193.7903 14.15742727651314
METEOR-M 2              
1 40069U 14037A   26116.97174856  .00000176  00000+0  99604-4 0  9992
2 40069  98.5086  94.5341 0005617 173.9424 186.1823 14.21447077612041
HIMAWARI-8              
1 40267U 14060A   26116.94970102  .00000000  00000+0  00000+0 0  9996
2 40267   0.0244 100.9081 0000915 298.9348 297.6658  1.00268452 42241
FENGYUN 2G              
1 40367U 14090A   26116.90893219 -.00000310  00000+0  00000+0 0  9994
2 40367   5.5118  73.4201 0002908 145.2152  63.2783  1.00272409 41489
METEOSAT-11 (MSG-4)     
1 40732U 15034A   26116.92370090  .00000054  00000+0  00000+0 0  9992
2 40732   3.0735  71.3747 0001592 344.6957 140.9530  1.00264171  6707
ELEKTRO-L 2             
1 41105U 15074A   26116.70502002 -.00000124  00000+0  00000+0 0  9996
2 41105   6.5672  71.1430 0002287 255.9887 126.8673  1.00270591 37994
INSAT-3DR               
1 41752U 16054A   26116.96837249 -.00000088  00000+0  00000+0 0  9994
2 41752   0.1155  86.2537 0011578 195.0845 356.2288  1.00271580 35307
HIMAWARI-9              
1 41836U 16064A   26116.59321954 -.00000287  00000+0  00000+0 0  9999
2 41836   0.0377 124.5813 0000861 283.3117 161.0242  1.00272038 34696
GOES 16                 
1 41866U 16071A   26116.90108081 -.00000102  00000+0  00000+0 0  9995
2 41866   0.2130  85.2891 0001499 251.0284  98.2535  1.00271206 34582
FENGYUN 4A              
1 41882U 16077A   26116.94632100 -.00000366  00000+0  00000+0 0  9999
2 41882   2.1949  80.7916 0008114 141.1904  97.3367  1.00266708 34412
CYGFM05                 
1 41884U 16078A   26116.77240304  .00024406  00000+0  35905-3 0  9990
2 41884  34.9570 240.4619 0007165  24.1347 335.9711 15.54430714520742
CYGFM04                 
1 41885U 16078B   26116.63648113  .00033003  00000+0  41411-3 0  9998
2 41885  34.9326 211.4734 0006048  69.7373 290.4001 15.58659522520944
CYGFM02                 
1 41886U 16078C   26116.66000060  .00037532  00000+0  42981-3 0  9999
2 41886  34.9407 207.1678 0007146  71.0560 289.0939 15.61017103521108
CYGFM01                 
1 41887U 16078D   26116.71812335  .00028550  00000+0  41048-3 0  9995
2 41887  34.9403 242.2753 0006908  16.6774 343.4176 15.55033742520686
CYGFM08                 
1 41888U 16078E   26116.69600112  .00031913  00000+0  42026-3 0  9995
2 41888  34.9432 223.2640 0008060  49.0046 311.1375 15.57367031520930
CYGFM07                 
1 41890U 16078G   26116.65822152  .00030915  00000+0  40621-3 0  9994
2 41890  34.9448 211.8986 0006474  68.5433 291.5981 15.57445710520956
CYGFM03                 
1 41891U 16078H   26116.62916098  .00030952  00000+0  40668-3 0  9997
2 41891  34.9403 214.0471 0005783  54.5985 305.5279 15.57451399520924
FENGYUN 3D              
1 43010U 17072A   26116.91197808  .00000064  00000+0  52214-4 0  9991
2 43010  99.0095  90.4180 0001424 153.8626 206.2621 14.19727971437715
NOAA 20 (JPSS-1)        
1 43013U 17073A   26116.89907712  .00000056  00000+0  47717-4 0  9998
2 43013  98.7746  56.8242 0002092  71.9426 288.1978 14.19547709437197
GOES 17                 
1 43226U 18022A   26116.90411416 -.00000193  00000+0  00000+0 0  9994
2 43226   0.8081  86.3988 0000667 276.3071  88.1847  1.00271991 29910
FENGYUN 2H              
1 43491U 18050A   26116.93748096 -.00000138  00000+0  00000+0 0  9998
2 43491   2.9016  79.6473 0001700 158.6942  33.3427  1.00274308 28928
METOP-C                 
1 43689U 18087A   26116.89617296  .00000097  00000+0  64340-4 0  9994
2 43689  98.6679 177.4283 0000806  39.9390 320.1846 14.21511843387547
GEO-KOMPSAT-2A          
1 43823U 18100A   26116.94718767 -.00000355  00000+0  00000+0 0  9997
2 43823   0.0568  67.9377 0002005 358.3688 257.8880  1.00270973 27116
METEOR-M2 2             
1 44387U 19038A   26116.96470616 -.00000163  00000+0 -50816-4 0  9997
2 44387  98.9132 103.5008 0001770 127.4204 232.7136 14.24350263354008
ARKTIKA-M 1             
1 47719U 21016A   26113.16409645 -.00000101  00000+0  00000+0 0  9997
2 47719  63.2246  65.5569 7266494 269.6808  14.9538  2.00609676 37686
FENGYUN 3E              
1 49008U 21062A   26116.97214480 -.00000031  00000+0  59929-5 0  9996
2 49008  98.7512 120.9505 0000845 192.5186 167.5969 14.19899692249316
GOES 18                 
1 51850U 22021A   26116.75209696  .00000085  00000+0  00000+0 0  9997
2 51850   0.0454  68.8293 0000512  19.4350 260.2358  1.00272846  6079
NOAA 21 (JPSS-2)        
1 54234U 22150A   26116.86283002  .00000074  00000+0  55677-4 0  9997
2 54234  98.7034  56.5213 0001803  21.2722 338.8529 14.19555786179265
METEOSAT-12 (MTG-I1)    
1 54743U 22170C   26116.92179422 -.00000019  00000+0  00000+0 0  9996
2 54743   0.7245  22.4196 0001119 334.3833 189.6263  1.00269615 12464
TIANMU-1 03             
1 55973U 23039A   26116.93467525  .00016758  00000+0  34750-3 0  9991
2 55973  97.5218 288.9617 0001655 279.4833  80.6229 15.45801029172919
TIANMU-1 04             
1 55974U 23039B   26116.94305644  .00017865  00000+0  36344-3 0  9997
2 55974  97.5152 288.1232 0002331 273.6712  86.4271 15.46346715172925
TIANMU-1 05             
1 55975U 23039C   26116.91316172  .00017027  00000+0  35380-3 0  9992
2 55975  97.5198 288.5729 0001612 323.1755  36.9383 15.45737907172896
TIANMU-1 06             
1 55976U 23039D   26116.94363642  .00017517  00000+0  35732-3 0  9995
2 55976  97.5206 289.1901 0001807 309.1682  50.9407 15.46273534172924
FENGYUN 3G              
1 56232U 23055A   26116.83343484  .00033062  00000+0  53587-3 0  9990
2 56232  49.9926 250.8699 0006019 324.2150  35.8413 15.52402329172020
METEOR-M2 3             
1 57166U 23091A   26116.87718841  .00000006  00000+0  21656-4 0  9999
2 57166  98.6123 172.8946 0003243 335.5965  24.5060 14.24042263147211
TIANMU-1 07             
1 57399U 23101A   26116.87436686  .00006842  00000+0  24361-3 0  9992
2 57399  97.2641 168.7314 0001396  11.7423 348.3850 15.29259306153801
TIANMU-1 08             
1 57400U 23101B   26116.90729275  .00008239  00000+0  29250-3 0  9992
2 57400  97.2630 168.5399 0002244 316.0755  44.0307 15.29290001153809
TIANMU-1 09             
1 57401U 23101C   26116.89100668  .00007107  00000+0  25264-3 0  9994
2 57401  97.2588 167.9678 0001901   3.5582 356.5672 15.29296612153800
TIANMU-1 10             
1 57402U 23101D   26116.92369701  .00006680  00000+0  23737-3 0  9992
2 57402  97.2667 168.9967 0002828 337.1253  22.9861 15.29331980153803
FENGYUN 3F              
1 57490U 23111A   26116.88671388  .00000062  00000+0  49682-4 0  9998
2 57490  98.6854 187.8457 0000905 113.1465 246.9807 14.19929786141583
ARKTIKA-M 2             
1 58584U 23198A   26110.92958556  .00000217  00000+0  00000+0 0  9990
2 58584  63.2192 160.7194 6953303 267.0904  18.4710  2.00586979 17173
TIANMU-1 11             
1 58645U 23205A   26116.99610686  .00006005  00000+0  23291-3 0  9991
2 58645  97.3487 139.3694 0009185 173.3423 186.7940 15.26454205129718
TIANMU-1 12             
1 58646U 23205B   26116.96498652  .00006015  00000+0  23372-3 0  9997
2 58646  97.3476 139.1056 0008035 155.3981 204.7643 15.26399422129696
TIANMU-1 13             
1 58647U 23205C   26116.99425582  .00006338  00000+0  24566-3 0  9997
2 58647  97.3504 139.3946 0008820 139.7027 220.4867 15.26453460129694
TIANMU-1 14             
1 58648U 23205D   26116.97965878  .00006087  00000+0  23623-3 0  9997
2 58648  97.3438 138.6056 0009426 144.2665 215.9206 15.26424870129696
TIANMU-1 19             
1 58660U 23208A   26116.92039728  .00009802  00000+0  33204-3 0  9999
2 58660  97.4438 233.0088 0006315 130.6687 229.5104 15.30759244129489
TIANMU-1 20             
1 58661U 23208B   26116.93271381  .00009894  00000+0  32289-3 0  9997
2 58661  97.4379 233.6035 0008340 139.6090 220.5772 15.31947499129573
TIANMU-1 21             
1 58662U 23208C   26116.93061516  .00011857  00000+0  36100-3 0  9993
2 58662  97.4437 236.0669 0008310 134.5021 225.6902 15.34118053129709
TIANMU-1 22             
1 58663U 23208D   26116.88590146  .00008770  00000+0  30169-3 0  9993
2 58663  97.4434 232.9512 0004688 146.5069 213.6469 15.30302234129480
TIANMU-1 15             
1 58700U 24004A   26116.97665098  .00006554  00000+0  25398-3 0  9995
2 58700  97.4679 303.1757 0007615 158.3346 201.8216 15.26465416127964
TIANMU-1 16             
1 58701U 24004B   26116.89342426  .00006401  00000+0  24793-3 0  9993
2 58701  97.4624 302.3824 0006001 158.3414 201.8079 15.26502265127955
TIANMU-1 17             
1 58702U 24004C   26116.94307289  .00006588  00000+0  25624-3 0  9998
2 58702  97.4653 302.9006 0005792 162.8967 197.2467 15.26350575127959
TIANMU-1 18             
1 58703U 24004D   26116.92737184  .00006777  00000+0  26265-3 0  9990
2 58703  97.4671 303.1100 0004694 154.1623 205.9851 15.26463982127952
INSAT-3DS               
1 58990U 24033A   26116.76572571 -.00000167  00000+0  00000+0 0  9992
2 58990   0.0919  86.7261 0001934 299.8544 185.9109  1.00270692 46550
METEOR-M2 4             
1 59051U 24039A   26116.97435288  .00000027  00000+0  31640-4 0  9996
2 59051  98.6980  76.9273 0006429 326.5441  33.5330 14.22424011111980
GOES 19                 
1 60133U 24119A   26116.90688750 -.00000260  00000+0  00000+0 0  9996
2 60133   0.0266  67.9640 0000641  17.4109  20.8049  1.00273156  6457
FENGYUN 3H              
1 65815U 25219A   26116.81204081  .00000058  00000+0  47578-4 0  9991
2 65815  98.6741  58.5886 0000838 106.2115 253.9154 14.19944046 30090
